{
  "norad_id": 63195,
  "name": "STARLINK-11631 [DTC]",
  "history": [
    {
      "epoch": "2026-03-28T16:27:55.903680",
      "apogee_km": 358.33099254501303,
      "perigee_km": 353.9025472659232,
      "latitude_deg": 10.353051566375596,
      "longitude_deg": -154.6378847998567,
      "semi_major_axis_km": 6734.253769905468,
      "eccentricity": 0.0003288,
      "inclination_deg": 43.0002,
      "raan_deg": 205.8528,
      "arg_perigee_deg": 264.5557,
      "mean_anomaly_deg": 95.4936,
      "mean_motion_rev_day": 15.70972363
    }
  ]
}